{"fetched_at":"2026-07-09T18:17:05.753Z","source":"https://celestrak.org/NORAD/elements/gp.php?NAME=HAWK&FORMAT=JSON","constellation":"hawkeye-360","records":[{"OBJECT_NAME":"HAWK-12A","OBJECT_ID":"2025-138C","EPOCH":"2026-07-08T22:08:59.027424","CLASSIFICATION_TYPE":"U","MEAN_MOTION":15.18374948,"ECCENTRICITY":0.00155146,"INCLINATION":97.4413,"RA_OF_ASC_NODE":192.3399,"ARG_OF_PERICENTER":66.1755,"MEAN_ANOMALY":294.1104,"EPHEMERIS_TYPE":0,"NORAD_CAT_ID":64623,"ELEMENT_SET_NO":999,"REV_AT_EPOCH":5716,"BSTAR":0.0001210198,"MEAN_MOTION_DOT":0.00002426,"MEAN_MOTION_DDOT":0},{"OBJECT_NAME":"HAWK-13A","OBJECT_ID":"2026-004AF","EPOCH":"2026-07-08T22:19:06.681216","CLASSIFICATION_TYPE":"U","MEAN_MOTION":15.19325567,"ECCENTRICITY":0.00037141,"INCLINATION":97.4444,"RA_OF_ASC_NODE":188.491,"ARG_OF_PERICENTER":248.9169,"MEAN_ANOMALY":111.1669,"EPHEMERIS_TYPE":0,"NORAD_CAT_ID":67392,"ELEMENT_SET_NO":999,"REV_AT_EPOCH":2706,"BSTAR":0.00014078852,"MEAN_MOTION_DOT":0.00002906,"MEAN_MOTION_DDOT":0},{"OBJECT_NAME":"HAWK-13C","OBJECT_ID":"2026-004AG","EPOCH":"2026-07-08T22:18:53.758368","CLASSIFICATION_TYPE":"U","MEAN_MOTION":15.19325685,"ECCENTRICITY":0.00035728,"INCLINATION":97.459,"RA_OF_ASC_NODE":188.903,"ARG_OF_PERICENTER":253.6746,"MEAN_ANOMALY":106.4095,"EPHEMERIS_TYPE":0,"NORAD_CAT_ID":67393,"ELEMENT_SET_NO":999,"REV_AT_EPOCH":2706,"BSTAR":0.00013888931,"MEAN_MOTION_DOT":0.00002865,"MEAN_MOTION_DDOT":0},{"OBJECT_NAME":"HAWK-13B","OBJECT_ID":"2026-004AK","EPOCH":"2026-07-08T22:18:45.811296","CLASSIFICATION_TYPE":"U","MEAN_MOTION":15.19324841,"ECCENTRICITY":0.00048693,"INCLINATION":97.4529,"RA_OF_ASC_NODE":188.7311,"ARG_OF_PERICENTER":252.8623,"MEAN_ANOMALY":107.2078,"EPHEMERIS_TYPE":0,"NORAD_CAT_ID":67396,"ELEMENT_SET_NO":999,"REV_AT_EPOCH":2706,"BSTAR":0.00013700063,"MEAN_MOTION_DOT":0.00002826,"MEAN_MOTION_DDOT":0},{"OBJECT_NAME":"HAWK-14B","OBJECT_ID":"2026-067W","EPOCH":"2026-07-08T19:58:13.610208","CLASSIFICATION_TYPE":"U","MEAN_MOTION":15.18398257,"ECCENTRICITY":0.00022704,"INCLINATION":97.4554,"RA_OF_ASC_NODE":147.9724,"ARG_OF_PERICENTER":18.6098,"MEAN_ANOMALY":341.5218,"EPHEMERIS_TYPE":0,"NORAD_CAT_ID":68436,"ELEMENT_SET_NO":999,"REV_AT_EPOCH":1522,"BSTAR":0.00014725924,"MEAN_MOTION_DOT":0.00002961,"MEAN_MOTION_DDOT":0},{"OBJECT_NAME":"HAWK-14C","OBJECT_ID":"2026-067AB","EPOCH":"2026-07-08T19:58:22.481760","CLASSIFICATION_TYPE":"U","MEAN_MOTION":15.18400746,"ECCENTRICITY":0.00032527,"INCLINATION":97.4491,"RA_OF_ASC_NODE":147.8578,"ARG_OF_PERICENTER":39.9915,"MEAN_ANOMALY":320.1558,"EPHEMERIS_TYPE":0,"NORAD_CAT_ID":68441,"ELEMENT_SET_NO":999,"REV_AT_EPOCH":1522,"BSTAR":0.00015052274,"MEAN_MOTION_DOT":0.00003028,"MEAN_MOTION_DDOT":0},{"OBJECT_NAME":"HAWK-14A","OBJECT_ID":"2026-067AJ","EPOCH":"2026-07-07T20:15:05.761152","CLASSIFICATION_TYPE":"U","MEAN_MOTION":15.18389711,"ECCENTRICITY":0.00040781,"INCLINATION":97.4616,"RA_OF_ASC_NODE":147.1184,"ARG_OF_PERICENTER":34.9941,"MEAN_ANOMALY":325.156,"EPHEMERIS_TYPE":0,"NORAD_CAT_ID":68448,"ELEMENT_SET_NO":999,"REV_AT_EPOCH":1507,"BSTAR":0.00013787574,"MEAN_MOTION_DOT":0.00002767,"MEAN_MOTION_DDOT":0}]}
