HAWK-12A                
1 64623U 25138C   26189.92290541  .00002426  00000+0  12102-3 0  9990
2 64623  97.4413 192.3399 0015514  66.1755 294.1104 15.18374948 57163
HAWK-13A                
1 67392U 26004AF  26189.92993844  .00002906  00000+0  14079-3 0  9993
2 67392  97.4444 188.4910 0003714 248.9169 111.1669 15.19325567 27060
HAWK-13C                
1 67393U 26004AG  26189.92978887  .00002865  00000+0  13889-3 0  9996
2 67393  97.4590 188.9030 0003572 253.6746 106.4095 15.19325685 27068
HAWK-13B                
1 67396U 26004AK  26189.92969689  .00002826  00000+0  13700-3 0  9998
2 67396  97.4529 188.7311 0004869 252.8623 107.2078 15.19324841 27061
HAWK-14B                
1 68436U 26067W   26189.83210197  .00002961  00000+0  14726-3 0  9995
2 68436  97.4554 147.9724 0002270  18.6098 341.5218 15.18398257 15223
HAWK-14C                
1 68441U 26067AB  26189.83220465  .00003028  00000+0  15052-3 0  9998
2 68441  97.4491 147.8578 0003252  39.9915 320.1558 15.18400746 15227
HAWK-14A                
1 68448U 26067AJ  26188.84381668  .00002767  00000+0  13788-3 0  9991
2 68448  97.4616 147.1184 0004078  34.9941 325.1560 15.18389711 15079
